# From MPC106342
C/1995 O1 (Hale-Bopp),e,89.0149,283.3080,130.5502,179.2299,0.0004108,0.99494436,0.0000,03/29.7310/1997,2000,g -2.0,4.0
# From NK 1615
P/1996 R2 (Lagerkvist),e,2.6003,40.0314,333.3110,3.775046,0.1343757,0.31403902,89.5425,12/09.0/2020,2000,g 11.5,4.0
# From MPC 30063
P/1997 B1 (Kobayashi),e,12.3396,328.8844,183.3588,8.568202,0.0392979,0.76011401,341.3412,12/09.0/2020,2000,g 15.0,2.0
# From MPC 75703
P/1998 VS24 (LINEAR),e,5.0253,159.0313,244.6735,4.529535,0.1022407,0.24198674,107.9667,12/09.0/2020,2000,g 13.0,2.0
# From NK 731
P/1999 RO28 (LONEOS),e,7.5667,137.8835,231.2691,3.426777,0.1553729,0.67206278,82.6411,12/09.0/2020,2000,g 20.0,2.0
# From MPC 75704
P/1999 XN120 (Catalina),e,5.0297,285.2959,161.8973,4.179009,0.1153703,0.21033186,147.3719,12/09.0/2020,2000,g 13.5,2.0
# From NK 744
P/2000 R2 (LINEAR),e,11.6845,160.2939,176.5171,3.466117,0.1527352,0.53156675,82.5661,12/09.0/2020,2000,g 18.0,4.0
# From MPC 43019
P/2001 H5 (NEAT),e,8.3673,328.6847,224.8679,6.098107,0.0654503,0.59866384,122.8933,12/09.0/2020,2000,g 12.0,4.0
# From MPC 75704
P/2001 Q6 (NEAT),e,56.9028,22.1313,42.9444,7.950849,0.0439626,0.82282099,308.2527,12/09.0/2020,2000,g 13.5,4.0
# From MPC 47727
P/2002 EJ57 (LINEAR),e,4.9761,330.3282,167.3649,6.473069,0.0598465,0.59276510,54.1335,12/09.0/2020,2000,g 12.5,4.0
# From MPC109588
P/2002 T6 (NEAT-LINEAR),e,10.8334,206.4389,219.6023,7.671256,0.0463879,0.56009549,298.6502,12/09.0/2020,2000,g 10.5,4.0
# From MPC 75007
C/2002 VQ94 (LINEAR),e,70.5686,35.0142,100.1648,185.8819,0.0003889,0.96323478,2.1116,12/09.0/2020,2000,g  9.5,2.0
# From MPC 50354
P/2003 F2 (NEAT),e,11.6047,359.0708,191.9319,6.490798,0.0596015,0.54223500,23.4041,12/09.0/2020,2000,g 16.5,2.0
# From MPC 50139
P/2003 QX29 (NEAT),e,11.3898,264.5875,37.4083,8.032342,0.0432953,0.47297732,286.4004,12/09.0/2020,2000,g  8.5,4.0
# From MPC105235
P/2003 T12 (SOHO),e,11.0170,174.5734,219.7687,2.586187,0.2369814,0.76964761,51.2207,12/09.0/2020,2000,g 17.0,4.0
# From MPC 82312
P/2004 A1 (LONEOS),e,10.5516,124.8474,21.4119,7.956153,0.0439187,0.30936181,261.8095,12/09.0/2020,2000,g  6.5,4.0
# From MPC 54558
P/2004 DO29 (Spacewatch-LINEAR),e,14.5317,147.3791,40.7206,7.282919,0.0501471,0.44131600,296.1294,12/09.0/2020,2000,g 13.5,2.0
# From MPC 54823
P/2004 FY140 (LINEAR),e,2.1348,326.7609,242.4573,4.901784,0.0908182,0.16859294,178.3767,12/09.0/2020,2000,g 12.5,2.0
# From MPC 53304
P/2004 R3 (LINEAR-NEAT),e,12.8257,305.4807,38.6192,4.795517,0.0938536,0.26131980,332.5915,12/09.0/2020,2000,g 14.5,4.0
# From MPC 55521
P/2004 V3 (Siding Spring),e,50.4335,356.1164,322.3033,7.143867,0.0516183,0.44633039,304.3582,12/09.0/2020,2000,g 11.5,4.0
# From MPC 75705
P/2004 V5 (LINEAR-Hill),e,19.3449,47.7710,87.7797,7.976103,0.0437540,0.44353647,253.0402,12/09.0/2020,2000,g  8.0,4.0
# From MPEC 2020-X09
P/2005 CR16,e,9.3936,139.9822,313.1092,6.627356,0.0577688,0.51007345,348.6400,12/09.0/2020,2000,g 12.5,4.0
# From MPC 54164
P/2005 E1 (Tubbiolo),e,4.2637,335.5716,194.1198,7.037680,0.0527910,0.37518016,305.8919,12/09.0/2020,2000,g 10.0,4.0
# From MPC 54823
P/2005 GF8 (LONEOS),e,1.1934,314.8333,285.0729,5.859814,0.0694830,0.51808966,30.3343,12/09.0/2020,2000,g 11.5,4.0
# From MPC 79019
P/2005 J1 (McNaught),e,31.7663,268.8039,338.9579,3.569833,0.1461276,0.56986197,115.1931,12/09.0/2020,2000,g 16.5,4.0
# From MPC 74246
P/2005 L1 (McNaught),e,7.7386,138.2476,149.6997,3.975248,0.1243534,0.20937284,319.1341,12/09.0/2020,2000,g  9.5,4.0
# From MPC 75706
P/2005 S2 (Skiff),e,3.1357,161.1968,229.1566,8.017193,0.0434181,0.19692431,231.3975,12/09.0/2020,2000,g  7.5,4.0
# From MPC 75706
P/2005 SB216 (LONEOS),e,24.0734,1.2343,83.3913,7.127499,0.0517963,0.46334691,263.2475,12/09.0/2020,2000,g 12.0,2.0
# From MPC 55717
P/2005 T2 (Christensen),e,8.2927,260.1573,58.8111,3.845918,0.1306784,0.41639816,31.9685,12/09.0/2020,2000,g 14.5,4.0
# From MPC 73461
P/2005 T3 (Read),e,6.2246,27.7400,7.0058,7.577905,0.0472477,0.17398250,261.5813,12/09.0/2020,2000,g  9.0,4.0
# From MPC 73461
P/2005 T4 (SWAN),e,160.1834,25.6757,41.5800,9.360945,0.0344132,0.92990821,191.0074,12/09.0/2020,2000,g 15.0,4.0
# From MPC 75706
P/2005 T5 (Broughton),e,21.3532,57.0068,304.5268,7.291483,0.0500588,0.55201666,277.4700,12/09.0/2020,2000,g 11.0,4.0
# From MPC 56954
P/2005 W3 (Kowalski),e,16.4180,210.0899,200.6866,6.331619,0.0618631,0.54348739,342.3226,12/09.0/2020,2000,g 12.0,4.0
# From MPC 75706
P/2005 Y2 (McNaught),e,19.0920,94.5077,194.0265,6.385064,0.0610880,0.47051378,3.0112,12/09.0/2020,2000,g  9.0,4.0
# From MPC 56954
P/2006 F4 (Spacewatch),e,12.4033,183.8734,31.1505,3.526645,0.1488200,0.33941223,73.5706,12/09.0/2020,2000,g 15.0,4.0
# From MPC 75707
P/2006 HR30 (Siding Spring),e,31.8299,309.9023,117.2903,7.811263,0.0451463,0.84203452,230.6597,12/09.0/2020,2000,g 11.0,4.0
# From MPC 75707
P/2006 S4 (Christensen),e,39.5353,36.0941,305.1492,6.311470,0.0621596,0.50800197,335.0303,12/09.0/2020,2000,g 11.0,4.0
# From MPC 75707
P/2007 A2 (Christensen),e,26.4877,300.9066,186.7579,6.324857,0.0619624,0.55757497,315.3625,12/09.0/2020,2000,g 13.5,4.0
# From MPC 59319
P/2007 B1 (Christensen),e,12.3762,77.6666,46.7518,5.819628,0.0702039,0.58092753,356.6556,12/09.0/2020,2000,g 13.5,4.0
# From MPC 75707
P/2007 C2 (Catalina),e,8.6572,275.6211,179.9052,6.994007,0.0532862,0.47007013,256.8950,12/09.0/2020,2000,g 10.0,4.0
# From MPC 84315
C/2007 D1 (LINEAR),e,41.5015,171.1791,340.0989,1541,0.0000163,0.99427132,0.0000,06/09.6609/2007,2000,g  3.5,4.0
# From MPC 82314
P/2007 K2 (Gibbs),e,7.6363,188.6467,347.4680,7.262783,0.0503558,0.68333959,248.5403,12/09.0/2020,2000,g 14.0,4.0
# From MPC 60925
P/2007 Q2 (Gilmore),e,10.2024,172.1600,162.7768,5.655030,0.0732912,0.67026532,0.8814,12/09.0/2020,2000,g 16.0,4.0
# From MPC 75708
P/2007 R4 (Garradd),e,20.2253,87.2224,282.6563,5.927083,0.0683034,0.67000067,335.0792,12/09.0/2020,2000,g 14.5,4.0
# From MPC 73462
P/2007 S1 (Zhao),e,5.9632,141.3790,245.7379,3.812914,0.1323788,0.33962050,271.4932,12/09.0/2020,2000,g 13.0,4.0
# From MPC 61994
P/2007 T2 (Kowalski),e,9.7451,3.3750,359.6357,3.047188,0.1852914,0.78523385,161.0684,12/09.0/2020,2000,g 18.5,4.0
# From MPC 75708
P/2008 CL94 (Lemmon),e,8.3473,33.3312,80.5239,6.160908,0.0644521,0.12026746,341.5116,12/09.0/2020,2000,g  8.0,4.0
# From MPC 75709
P/2008 L2 (Hill),e,25.8567,218.0053,141.2112,6.028663,0.0665844,0.61302842,301.1894,12/09.0/2020,2000,g 12.5,4.0
# From MPC 64114
P/2008 O3 (Boattini),e,32.2500,47.5978,341.0871,8.223162,0.0417971,0.69507461,191.5683,12/09.0/2020,2000,g 13.0,4.0
# From MPC 75709
P/2008 QP20 (LINEAR-Hill),e,7.5216,322.0780,75.6248,3.552392,0.1472051,0.49226871,302.7187,12/09.0/2020,2000,g 15.5,4.0
# From MPC 66204
P/2008 WZ96 (LINEAR),e,7.1119,56.4843,341.8627,3.490555,0.1511341,0.47037707,320.6045,12/09.0/2020,2000,g 13.5,4.0
# From MPC 75710
P/2008 Y3 (McNaught),e,38.7630,262.7907,238.2666,8.045925,0.0431857,0.44553372,188.5553,12/09.0/2020,2000,g  8.5,4.0
# From MPC 75710
P/2009 B1 (Boattini),e,22.2192,297.0914,128.8950,6.735887,0.0563783,0.63465102,245.4183,12/09.0/2020,2000,g 13.0,4.0
# From MPC 66466
C/2009 G1 (STEREO),e,108.7483,120.4323,175.3894,426.7343,0.0001118,0.99734084,0.0000,04/15.1951/2009,2000,g  9.0,4.0
# From MPC 75710
P/2009 O3 (Hill),e,16.2645,183.7157,154.3891,7.770580,0.0455013,0.68754295,192.0502,12/09.0/2020,2000,g 12.5,4.0
# From MPC 98557
P/2009 Q1 (Hill),e,14.5055,173.9589,157.1250,5.520141,0.0759939,0.49477372,319.6349,12/09.0/2020,2000,g 11.5,4.0
# From MPC 68902
P/2009 Q5 (McNaught),e,40.9742,160.2633,209.0195,7.438022,0.0485868,0.60868260,199.9537,12/09.0/2020,2000,g 10.0,4.0
# From MPC112389
P/2009 T2 (La Sagra),e,27.5466,215.7917,216.4200,7.724335,0.0459105,0.76508772,183.6242,12/09.0/2020,2000,g 14.0,4.0
# From MPC 75711
P/2009 U4 (McNaught),e,10.0808,55.3575,259.8406,5.083565,0.0859907,0.67610398,355.3472,12/09.0/2020,2000,g 14.0,4.0
# From MPC105235
P/2009 WX51 (Catalina),e,9.5955,31.6829,118.0720,3.080646,0.1822810,0.74031225,4.1264,12/09.0/2020,2000,g 19.0,2.0
# From MPC 74247
P/2009 Y2 (Kowalski),e,29.9294,262.0241,172.1698,6.549086,0.0588075,0.63587088,231.3712,12/09.0/2020,2000,g 13.0,4.0
# From MPC 75711
P/2010 A3 (Hill),e,14.8625,64.0695,41.9558,6.075684,0.0658129,0.73328359,257.6154,12/09.0/2020,2000,g 14.0,4.0
# From MPC 72851
P/2010 A5 (LINEAR),e,5.7978,277.6636,307.0882,5.083404,0.0859948,0.66502083,333.1277,12/09.0/2020,2000,g 13.0,4.0
# From MPC105235
P/2010 B2 (WISE),e,8.9306,0.8479,155.9189,3.109922,0.1797131,0.47988883,0.7967,12/09.0/2020,2000,g 17.0,4.0
# From MPC 75008
P/2010 C1 (Scotti),e,9.1282,141.8862,3.7737,7.102836,0.0520663,0.25862713,210.3902,12/09.0/2020,2000,g  9.5,4.0
# From MPC 75008
P/2010 D2 (WISE),e,57.0848,319.8918,120.0921,6.715714,0.0566325,0.45086036,223.6256,12/09.0/2020,2000,g 16.0,4.0
# From MPC 75009
P/2010 E2 (Jarnac),e,15.4054,177.8249,8.3701,8.637987,0.0388227,0.72022948,151.5050,12/09.0/2020,2000,g 14.0,4.0
# From MPC 72851
P/2010 H2 (Vales),e,14.2730,64.2060,128.1919,3.834365,0.1312695,0.19567761,155.8023,12/09.0/2020,2000,g  6.0,4.0
# From MPC 70361
P/2010 H3 (SOHO),e,23.0892,77.1053,26.1345,3.059664,0.1841593,0.98548734,0.0000,02/07.9643/2021,2000,g 20.0,2.0
# From MPC 73463
P/2010 H4 (Scotti),e,2.3189,44.7468,179.5598,6.589734,0.0582643,0.26754305,222.8469,12/09.0/2020,2000,g 10.5,4.0
# From MPC 74637
P/2010 H5 (Scotti),e,14.0669,24.8088,175.2783,7.158845,0.0514564,0.15364614,200.4939,12/09.0/2020,2000,g 13.0,2.0
# From MPC 98558
P/2010 J3 (McMillan),e,13.2891,106.4099,157.5855,8.970325,0.0366853,0.72723962,137.7153,12/09.0/2020,2000,g 11.0,4.0
# From MPC 84315
P/2010 JC81 (WISE),e,38.7202,30.8426,12.4420,8.111101,0.0426662,0.77670701,150.2636,12/09.0/2020,2000,g  9.0,4.0
# From MPC 74248
P/2010 T2 (PANSTARRS),e,7.9137,59.0367,353.6733,5.514918,0.0761019,0.32150595,268.4736,12/09.0/2020,2000,g 11.5,4.0
# From MPC 98558
P/2010 TO20 (LINEAR-Grauer),e,2.4792,43.2975,266.7454,5.829184,0.0700313,0.05458963,310.2552,12/09.0/2020,2000,g  9.0,4.0
# From MPC 82316
